{
  "type": "FeatureCollection",
  "features": [
    {
      "type": "Feature",
      "properties": {
        "norad_id": 31225,
        "name": "FENGYUN 1C DEB",
        "group": "fengyun-1c-debris",
        "lat": 71.13689881697788,
        "lon": -101.6199895868895,
        "alt_km": 824.1528105474936,
        "timestamp": "2025-12-03T15:48:03.351828+00:00",
        "meta_object_name": "FENGYUN 1C DEB",
        "meta_object_id": "1999-025BLF",
        "meta_epoch": "2025-12-01T21:15:36.608832",
        "meta_mean_motion": 14.17769294,
        "meta_eccentricity": 0.00884454,
        "meta_inclination": 98.9909,
        "meta_ra_of_asc_node": 48.9798,
        "meta_arg_of_pericenter": 22.7809,
        "meta_mean_anomaly": 40.8874,
        "meta_ephemeris_type": 0,
        "meta_classification_type": "U",
        "meta_norad_cat_id": 31225,
        "meta_element_set_no": 999,
        "meta_rev_at_epoch": 95668,
        "meta_bstar": 0.0014192248,
        "meta_mean_motion_dot": 2.963e-05,
        "meta_mean_motion_ddot": 0,
        "tle_line1": "1 31225U 99025BLF 25335.88584038  .00002963  00000+0  14192-2 0  9998",
        "tle_line2": "2 31225  98.9909  48.9798 0088445  22.7809  40.8874 14.17769294956686"
      },
      "geometry": {
        "type": "Point",
        "coordinates": [
          -101.6199895868895,
          71.13689881697788
        ]
      }
    },
    {
      "type": "Feature",
      "properties": {
        "norad_id": 31226,
        "name": "FENGYUN 1C DEB",
        "group": "fengyun-1c-debris",
        "lat": -19.152662265091585,
        "lon": -19.186895263997823,
        "alt_km": 849.3381036863593,
        "timestamp": "2025-12-03T15:48:03.351838+00:00",
        "meta_object_name": "FENGYUN 1C DEB",
        "meta_object_id": "1999-025BLG",
        "meta_epoch": "2025-11-29T17:37:53.865408",
        "meta_mean_motion": 14.26652018,
        "meta_eccentricity": 0.01262031,
        "meta_inclination": 98.3505,
        "meta_ra_of_asc_node": 334.1443,
        "meta_arg_of_pericenter": 234.4995,
        "meta_mean_anomaly": 124.436,
        "meta_ephemeris_type": 0,
        "meta_classification_type": "U",
        "meta_norad_cat_id": 31226,
        "meta_element_set_no": 999,
        "meta_rev_at_epoch": 61868,
        "meta_bstar": 0.000359701,
        "meta_mean_motion_dot": 9.03e-06,
        "meta_mean_motion_ddot": 0,
        "tle_line1": "1 31226U 99025BLG 25333.73465122  .00000903  00000+0  35970-3 0  9993",
        "tle_line2": "2 31226  98.3505 334.1443 0126203 234.4995 124.4360 14.26652018618682"
      },
      "geometry": {
        "type": "Point",
        "coordinates": [
          -19.186895263997823,
          -19.152662265091585
        ]
      }
    },
    {
      "type": "Feature",
      "properties": {
        "norad_id": 31228,
        "name": "FENGYUN 1C DEB",
        "group": "fengyun-1c-debris",
        "lat": -3.017143580907129,
        "lon": -110.32753063656394,
        "alt_km": 795.9895268578302,
        "timestamp": "2025-12-03T15:48:03.351847+00:00",
        "meta_object_name": "FENGYUN 1C DEB",
        "meta_object_id": "1999-025BLJ",
        "meta_epoch": "2025-12-03T08:00:44.304768",
        "meta_mean_motion": 14.36872993,
        "meta_eccentricity": 0.00790136,
        "meta_inclination": 98.8686,
        "meta_ra_of_asc_node": 248.8667,
        "meta_arg_of_pericenter": 113.3829,
        "meta_mean_anomaly": 6.7685,
        "meta_ephemeris_type": 0,
        "meta_classification_type": "U",
        "meta_norad_cat_id": 31228,
        "meta_element_set_no": 999,
        "meta_rev_at_epoch": 97434,
        "meta_bstar": 0.00068913707,
        "meta_mean_motion_dot": 2.065e-05,
        "meta_mean_motion_ddot": 0,
        "tle_line1": "1 31228U 99025BLJ 25337.33384612  .00002065  00000+0  68914-3 0  9994",
        "tle_line2": "2 31228  98.8686 248.8667 0079013 113.3829   6.7685 14.36872993974342"
      },
      "geometry": {
        "type": "Point",
        "coordinates": [
          -110.32753063656394,
          -3.017143580907129
        ]
      }
    },
    {
      "type": "Feature",
      "properties": {
        "norad_id": 31229,
        "name": "FENGYUN 1C DEB",
        "group": "fengyun-1c-debris",
        "lat": -70.15356891593461,
        "lon": 78.55374561066343,
        "alt_km": 796.0472667146096,
        "timestamp": "2025-12-03T15:48:03.351857+00:00",
        "meta_object_name": "FENGYUN 1C DEB",
        "meta_object_id": "1999-025BLK",
        "meta_epoch": "2025-12-02T21:33:26.156160",
        "meta_mean_motion": 14.21721225,
        "meta_eccentricity": 0.00524397,
        "meta_inclination": 98.8685,
        "meta_ra_of_asc_node": 52.159,
        "meta_arg_of_pericenter": 325.7559,
        "meta_mean_anomaly": 34.024,
        "meta_ephemeris_type": 0,
        "meta_classification_type": "U",
        "meta_norad_cat_id": 31229,
        "meta_element_set_no": 999,
        "meta_rev_at_epoch": 95944,
        "meta_bstar": 0.0016946422,
        "meta_mean_motion_dot": 3.733e-05,
        "meta_mean_motion_ddot": 0,
        "tle_line1": "1 31229U 99025BLK 25336.89821940  .00003733  00000+0  16946-2 0  9995",
        "tle_line2": "2 31229  98.8685  52.1590 0052439 325.7559  34.0240 14.21721225959445"
      },
      "geometry": {
        "type": "Point",
        "coordinates": [
          78.55374561066343,
          -70.15356891593461
        ]
      }
    },
    {
      "type": "Feature",
      "properties": {
        "norad_id": 31231,
        "name": "FENGYUN 1C DEB",
        "group": "fengyun-1c-debris",
        "lat": -4.103995805913009,
        "lon": 136.5771636706744,
        "alt_km": 727.3588667385811,
        "timestamp": "2025-12-03T15:48:03.351866+00:00",
        "meta_object_name": "FENGYUN 1C DEB",
        "meta_object_id": "1999-025BLM",
        "meta_epoch": "2025-12-03T04:25:17.802912",
        "meta_mean_motion": 14.74747925,
        "meta_eccentricity": 0.01480731,
        "meta_inclination": 98.8603,
        "meta_ra_of_asc_node": 135.4173,
        "meta_arg_of_pericenter": 136.6139,
        "meta_mean_anomaly": 224.6836,
        "meta_ephemeris_type": 0,
        "meta_classification_type": "U",
        "meta_norad_cat_id": 31231,
        "meta_element_set_no": 999,
        "meta_rev_at_epoch": 62880,
        "meta_bstar": 0.0045464384,
        "meta_mean_motion_dot": 0.00036415,
        "meta_mean_motion_ddot": 0,
        "tle_line1": "1 31231U 99025BLM 25337.18423383  .00036415  00000+0  45464-2 0  9990",
        "tle_line2": "2 31231  98.8603 135.4173 0148073 136.6139 224.6836 14.74747925628807"
      },
      "geometry": {
        "type": "Point",
        "coordinates": [
          136.5771636706744,
          -4.103995805913009
        ]
      }
    },
    {
      "type": "Feature",
      "properties": {
        "norad_id": 31234,
        "name": "FENGYUN 1C DEB",
        "group": "fengyun-1c-debris",
        "lat": -15.987082343740454,
        "lon": -25.55381079719658,
        "alt_km": 871.624675086252,
        "timestamp": "2025-12-03T15:48:03.351875+00:00",
        "meta_object_name": "FENGYUN 1C DEB",
        "meta_object_id": "1999-025BLQ",
        "meta_epoch": "2025-12-03T05:38:41.279136",
        "meta_mean_motion": 14.08001275,
        "meta_eccentricity": 0.00729359,
        "meta_inclination": 98.7845,
        "meta_ra_of_asc_node": 331.4953,
        "meta_arg_of_pericenter": 253.9693,
        "meta_mean_anomaly": 105.3435,
        "meta_ephemeris_type": 0,
        "meta_classification_type": "U",
        "meta_norad_cat_id": 31234,
        "meta_element_set_no": 999,
        "meta_rev_at_epoch": 72586,
        "meta_bstar": 0.00032210422,
        "meta_mean_motion_dot": 5.18e-06,
        "meta_mean_motion_ddot": 0,
        "tle_line1": "1 31234U 99025BLQ 25337.23519999  .00000518  00000+0  32210-3 0  9999",
        "tle_line2": "2 31234  98.7845 331.4953 0072935 253.9693 105.3435 14.08001275725864"
      },
      "geometry": {
        "type": "Point",
        "coordinates": [
          -25.55381079719658,
          -15.987082343740454
        ]
      }
    },
    {
      "type": "Feature",
      "properties": {
        "norad_id": 31235,
        "name": "FENGYUN 1C DEB",
        "group": "fengyun-1c-debris",
        "lat": -18.13291690876778,
        "lon": 129.1278612784918,
        "alt_km": 783.1176687645593,
        "timestamp": "2025-12-03T15:48:03.351884+00:00",
        "meta_object_name": "FENGYUN 1C DEB",
        "meta_object_id": "1999-025BLR",
        "meta_epoch": "2025-12-02T16:11:02.663232",
        "meta_mean_motion": 14.18412346,
        "meta_eccentricity": 0.01800212,
        "meta_inclination": 98.4719,
        "meta_ra_of_asc_node": 125.3899,
        "meta_arg_of_pericenter": 51.7016,
        "meta_mean_anomaly": 310.0196,
        "meta_ephemeris_type": 0,
        "meta_classification_type": "U",
        "meta_norad_cat_id": 31235,
        "meta_element_set_no": 999,
        "meta_rev_at_epoch": 63024,
        "meta_bstar": 0.0030847823,
        "meta_mean_motion_dot": 7.441e-05,
        "meta_mean_motion_ddot": 0,
        "tle_line1": "1 31235U 99025BLR 25336.67433638  .00007441  00000+0  30848-2 0  9998",
        "tle_line2": "2 31235  98.4719 125.3899 0180021  51.7016 310.0196 14.18412346630242"
      },
      "geometry": {
        "type": "Point",
        "coordinates": [
          129.1278612784918,
          -18.13291690876778
        ]
      }
    }
  ]
}